{
  "type": "FeatureCollection",
  "features": [
    {
      "type": "Feature",
      "properties": {
        "norad_id": 29790,
        "name": "FENGYUN 1C DEB",
        "group": "fengyun-1c-debris",
        "lat": -77.55664898755631,
        "lon": 110.66433937441371,
        "alt_km": 778.0181811476386,
        "timestamp": "2025-12-09T16:56:36.845880+00:00",
        "meta_object_name": "FENGYUN 1C DEB",
        "meta_object_id": "1999-025CG",
        "meta_epoch": "2025-12-09T10:41:59.479584",
        "meta_mean_motion": 14.32261501,
        "meta_eccentricity": 0.0076353,
        "meta_inclination": 99.1471,
        "meta_ra_of_asc_node": 337.2921,
        "meta_arg_of_pericenter": 186.0898,
        "meta_mean_anomaly": 173.9363,
        "meta_ephemeris_type": 0,
        "meta_classification_type": "U",
        "meta_norad_cat_id": 29790,
        "meta_element_set_no": 999,
        "meta_rev_at_epoch": 98478,
        "meta_bstar": 0.00048455,
        "meta_mean_motion_dot": 1.301e-05,
        "meta_mean_motion_ddot": 0,
        "tle_line1": "1 29790U 99025CG  25343.44582731  .00001301  00000+0  48455-3 0  9996",
        "tle_line2": "2 29790  99.1471 337.2921 0076353 186.0898 173.9363 14.32261501984784"
      },
      "geometry": {
        "type": "Point",
        "coordinates": [
          110.66433937441371,
          -77.55664898755631
        ]
      }
    },
    {
      "type": "Feature",
      "properties": {
        "norad_id": 29791,
        "name": "FENGYUN 1C DEB",
        "group": "fengyun-1c-debris",
        "lat": -80.5982869318309,
        "lon": 90.01786374245131,
        "alt_km": 734.6390270128823,
        "timestamp": "2025-12-09T16:56:36.845891+00:00",
        "meta_object_name": "FENGYUN 1C DEB",
        "meta_object_id": "1999-025CH",
        "meta_epoch": "2025-12-09T11:30:55.253088",
        "meta_mean_motion": 14.58173815,
        "meta_eccentricity": 0.0041641,
        "meta_inclination": 99.0365,
        "meta_ra_of_asc_node": 343.7436,
        "meta_arg_of_pericenter": 71.6561,
        "meta_mean_anomaly": 89.2793,
        "meta_ephemeris_type": 0,
        "meta_classification_type": "U",
        "meta_norad_cat_id": 29791,
        "meta_element_set_no": 999,
        "meta_rev_at_epoch": 98798,
        "meta_bstar": 0.0022419,
        "meta_mean_motion_dot": 0.00010422,
        "meta_mean_motion_ddot": 0,
        "tle_line1": "1 29791U 99025CH  25343.47980617  .00010422  00000+0  22419-2 0  9990",
        "tle_line2": "2 29791  99.0365 343.7436 0041641  71.6561  89.2793 14.58173815987986"
      },
      "geometry": {
        "type": "Point",
        "coordinates": [
          90.01786374245131,
          -80.5982869318309
        ]
      }
    },
    {
      "type": "Feature",
      "properties": {
        "norad_id": 29792,
        "name": "FENGYUN 1C DEB",
        "group": "fengyun-1c-debris",
        "lat": 36.9650919347236,
        "lon": 27.663669215967587,
        "alt_km": 804.6823704464177,
        "timestamp": "2025-12-09T16:56:36.845901+00:00",
        "meta_object_name": "FENGYUN 1C DEB",
        "meta_object_id": "1999-025CJ",
        "meta_epoch": "2025-12-09T03:11:35.990880",
        "meta_mean_motion": 14.15126937,
        "meta_eccentricity": 0.00482004,
        "meta_inclination": 98.7569,
        "meta_ra_of_asc_node": 33.7628,
        "meta_arg_of_pericenter": 46.9282,
        "meta_mean_anomaly": 313.5911,
        "meta_ephemeris_type": 0,
        "meta_classification_type": "U",
        "meta_norad_cat_id": 29792,
        "meta_element_set_no": 999,
        "meta_rev_at_epoch": 96888,
        "meta_bstar": 0.0015468881,
        "meta_mean_motion_dot": 2.993e-05,
        "meta_mean_motion_ddot": 0,
        "tle_line1": "1 29792U 99025CJ  25343.13305545  .00002993  00000+0  15469-2 0  9996",
        "tle_line2": "2 29792  98.7569  33.7628 0048200  46.9282 313.5911 14.15126937968880"
      },
      "geometry": {
        "type": "Point",
        "coordinates": [
          27.663669215967587,
          36.9650919347236
        ]
      }
    },
    {
      "type": "Feature",
      "properties": {
        "norad_id": 29793,
        "name": "FENGYUN 1C DEB",
        "group": "fengyun-1c-debris",
        "lat": 9.311237045732474,
        "lon": -15.882145950062856,
        "alt_km": 996.0820729714133,
        "timestamp": "2025-12-09T16:56:36.845912+00:00",
        "meta_object_name": "FENGYUN 1C DEB",
        "meta_object_id": "1999-025CK",
        "meta_epoch": "2025-12-09T11:14:32.922240",
        "meta_mean_motion": 14.01063226,
        "meta_eccentricity": 0.0143854,
        "meta_inclination": 98.3551,
        "meta_ra_of_asc_node": 162.5197,
        "meta_arg_of_pericenter": 347.5132,
        "meta_mean_anomaly": 65.5995,
        "meta_ephemeris_type": 0,
        "meta_classification_type": "U",
        "meta_norad_cat_id": 29793,
        "meta_element_set_no": 999,
        "meta_rev_at_epoch": 96103,
        "meta_bstar": 0.0015266,
        "meta_mean_motion_dot": 2.466e-05,
        "meta_mean_motion_ddot": 0,
        "tle_line1": "1 29793U 99025CK  25343.46843660  .00002466  00000+0  15266-2 0  9998",
        "tle_line2": "2 29793  98.3551 162.5197 0143854 347.5132  65.5995 14.01063226961037"
      },
      "geometry": {
        "type": "Point",
        "coordinates": [
          -15.882145950062856,
          9.311237045732474
        ]
      }
    },
    {
      "type": "Feature",
      "properties": {
        "norad_id": 29794,
        "name": "FENGYUN 1C DEB",
        "group": "fengyun-1c-debris",
        "lat": 32.43804943282665,
        "lon": 137.35436191308423,
        "alt_km": 751.417499301293,
        "timestamp": "2025-12-09T16:56:36.845922+00:00",
        "meta_object_name": "FENGYUN 1C DEB",
        "meta_object_id": "1999-025CL",
        "meta_epoch": "2025-12-09T10:16:07.644864",
        "meta_mean_motion": 14.08987894,
        "meta_eccentricity": 0.0157244,
        "meta_inclination": 98.1997,
        "meta_ra_of_asc_node": 142.359,
        "meta_arg_of_pericenter": 50.0038,
        "meta_mean_anomaly": 13.5014,
        "meta_ephemeris_type": 0,
        "meta_classification_type": "U",
        "meta_norad_cat_id": 29794,
        "meta_element_set_no": 999,
        "meta_rev_at_epoch": 96801,
        "meta_bstar": 0.0008129,
        "meta_mean_motion_dot": 1.54e-05,
        "meta_mean_motion_ddot": 0,
        "tle_line1": "1 29794U 99025CL  25343.42786626  .00001540  00000+0  81290-3 0  9996",
        "tle_line2": "2 29794  98.1997 142.3590 0157244  50.0038  13.5014 14.08987894968015"
      },
      "geometry": {
        "type": "Point",
        "coordinates": [
          137.35436191308423,
          32.43804943282665
        ]
      }
    },
    {
      "type": "Feature",
      "properties": {
        "norad_id": 29795,
        "name": "FENGYUN 1C DEB",
        "group": "fengyun-1c-debris",
        "lat": -57.07234304143609,
        "lon": 127.15604000910686,
        "alt_km": 848.0223750620817,
        "timestamp": "2025-12-09T16:56:36.845933+00:00",
        "meta_object_name": "FENGYUN 1C DEB",
        "meta_object_id": "1999-025CM",
        "meta_epoch": "2025-12-08T15:25:08.474016",
        "meta_mean_motion": 13.92906433,
        "meta_eccentricity": 0.0111057,
        "meta_inclination": 98.8702,
        "meta_ra_of_asc_node": 112.1836,
        "meta_arg_of_pericenter": 287.54,
        "meta_mean_anomaly": 83.9087,
        "meta_ephemeris_type": 0,
        "meta_classification_type": "U",
        "meta_norad_cat_id": 29795,
        "meta_element_set_no": 999,
        "meta_rev_at_epoch": 96008,
        "meta_bstar": 0.00036686,
        "meta_mean_motion_dot": 4.58e-06,
        "meta_mean_motion_ddot": 0,
        "tle_line1": "1 29795U 99025CM  25342.64245919  .00000458  00000+0  36686-3 0  9991",
        "tle_line2": "2 29795  98.8702 112.1836 0111057 287.5400  83.9087 13.92906433960089"
      },
      "geometry": {
        "type": "Point",
        "coordinates": [
          127.15604000910686,
          -57.07234304143609
        ]
      }
    },
    {
      "type": "Feature",
      "properties": {
        "norad_id": 29796,
        "name": "FENGYUN 1C DEB",
        "group": "fengyun-1c-debris",
        "lat": 71.32232776185872,
        "lon": 8.11594574664707,
        "alt_km": 878.9097664930468,
        "timestamp": "2025-12-09T16:56:36.845943+00:00",
        "meta_object_name": "FENGYUN 1C DEB",
        "meta_object_id": "1999-025CN",
        "meta_epoch": "2025-12-09T09:53:02.888736",
        "meta_mean_motion": 14.12324941,
        "meta_eccentricity": 0.0051761,
        "meta_inclination": 98.8651,
        "meta_ra_of_asc_node": 35.3208,
        "meta_arg_of_pericenter": 277.4294,
        "meta_mean_anomaly": 101.1643,
        "meta_ephemeris_type": 0,
        "meta_classification_type": "U",
        "meta_norad_cat_id": 29796,
        "meta_element_set_no": 999,
        "meta_rev_at_epoch": 97014,
        "meta_bstar": 0.0010634,
        "meta_mean_motion_dot": 1.939e-05,
        "meta_mean_motion_ddot": 0,
        "tle_line1": "1 29796U 99025CN  25343.41183899  .00001939  00000+0  10634-2 0  9995",
        "tle_line2": "2 29796  98.8651  35.3208 0051761 277.4294 101.1643 14.12324941970146"
      },
      "geometry": {
        "type": "Point",
        "coordinates": [
          8.11594574664707,
          71.32232776185872
        ]
      }
    }
  ]
}